TEVEL2-8                
1 63239U 25052AF  26068.66815442  .00019130  00000+0  69304-3 0  9993
2 63239  97.4055 324.2923 0008031 124.9191 235.2804 15.28392908 54807
STARLINK-35398          
1 66017U 25232N   26068.48914100  .00029035  00000+0  98897-3 0  9995
2 66017  53.1598 104.9292 0001560  69.6563 290.4605 15.30188307 23408
